{
  "norad_id": 57809,
  "name": "STARLINK-30374",
  "history": [
    {
      "epoch": "2026-03-28T19:06:33.537600Z",
      "apogee_km": 483.8130245326365,
      "perigee_km": 482.25018754755274,
      "latitude_deg": -3.375940772642091e-05,
      "longitude_deg": 13.146696392006556,
      "height_km": 482.74795995692176,
      "semi_major_axis_km": 6861.168606040094,
      "eccentricity": 0.00011389,
      "inclination_deg": 43.0016,
      "raan_deg": 125.998,
      "arg_perigee_deg": 274.4268,
      "mean_anomaly_deg": 85.6453,
      "mean_motion_rev_day": 15.27585841
    },
    {
      "epoch": "2026-03-29T02:57:20.660256Z",
      "apogee_km": 483.58583030753834,
      "perigee_km": 482.52097355715887,
      "latitude_deg": -4.949972696068673e-05,
      "longitude_deg": -106.71910595105132,
      "height_km": 482.81583587526467,
      "semi_major_axis_km": 6861.190401932348,
      "eccentricity": 7.76e-05,
      "inclination_deg": 43.0014,
      "raan_deg": 124.1508,
      "arg_perigee_deg": 271.4947,
      "mean_anomaly_deg": 88.5815,
      "mean_motion_rev_day": 15.27578562
    },
    {
      "epoch": "2026-03-30T02:29:41.389728Z",
      "apogee_km": 483.4887524272608,
      "perigee_km": 482.59721070045634,
      "latitude_deg": 3.376657597798112e-05,
      "longitude_deg": -106.30830553043239,
      "height_km": 482.8600786302256,
      "semi_major_axis_km": 6861.179981563859,
      "eccentricity": 6.497e-05,
      "inclination_deg": 43.0026,
      "raan_deg": 118.6146,
      "arg_perigee_deg": 264.7514,
      "mean_anomaly_deg": 95.3264,
      "mean_motion_rev_day": 15.27582042
    },
    {
      "epoch": "2026-03-30T10:20:27.074688Z",
      "apogee_km": 483.65213619297356,
      "perigee_km": 482.30694568395666,
      "latitude_deg": 3.163422389629215e-05,
      "longitude_deg": 133.82991383690273,
      "height_km": 482.65441154704723,
      "semi_major_axis_km": 6861.116540938465,
      "eccentricity": 9.803e-05,
      "inclination_deg": 43.0002,
      "raan_deg": 116.7654,
      "arg_perigee_deg": 278.6789,
      "mean_anomaly_deg": 81.3952,
      "mean_motion_rev_day": 15.27603229
    },
    {
      "epoch": "2026-03-30T18:11:14.751168Z",
      "apogee_km": 483.5858312661003,
      "perigee_km": 482.4965506165063,
      "latitude_deg": 1.4311485729896362e-05,
      "longitude_deg": 13.963796282345696,
      "height_km": 482.7305087860626,
      "semi_major_axis_km": 6861.178190941303,
      "eccentricity": 7.938e-05,
      "inclination_deg": 43.0006,
      "raan_deg": 114.9202,
      "arg_perigee_deg": 279.1837,
      "mean_anomaly_deg": 80.8925,
      "mean_motion_rev_day": 15.2758264
    },
    {
      "epoch": "2026-03-31T17:43:37.627680Z",
      "apogee_km": 483.92453152367125,
      "perigee_km": 482.3313458049133,
      "latitude_deg": 1.7899458641219224e-05,
      "longitude_deg": 14.36394199285061,
      "height_km": 482.8658047770115,
      "semi_major_axis_km": 6861.264938664292,
      "eccentricity": 0.0001161,
      "inclination_deg": 43.0027,
      "raan_deg": 109.3824,
      "arg_perigee_deg": 272.8019,
      "mean_anomaly_deg": 87.27,
      "mean_motion_rev_day": 15.2755367
    },
    {
      "epoch": "2026-04-01T17:15:58.442688Z",
      "apogee_km": 484.1692812896972,
      "perigee_km": 481.95997436553625,
      "latitude_deg": 4.842279571096967e-06,
      "longitude_deg": 14.769183009976711,
      "height_km": 482.6169558218849,
      "semi_major_axis_km": 6861.201627827616,
      "eccentricity": 0.000161,
      "inclination_deg": 43.001,
      "raan_deg": 103.8411,
      "arg_perigee_deg": 281.7345,
      "mean_anomaly_deg": 78.3326,
      "mean_motion_rev_day": 15.27574813
    }
  ]
}